#dP2021  7 17  0  0  0.00000000      96 __u+U ITR00 EXT  IAC
## 2166 518400.00000000   900.00000000 59412 0.0000000000000
+  115   C06C08C09C10C11C12C13C14C16C19C20C21C22C23C24C25C26
+        C27C28C29C30C32C33C34C35C36C37C38C39C40C41C42C43C44
+        C45C46E01E02E03E04E05E07E08E09E11E12E13E14E15E18E19
+        E21E24E25E26E27E30E31E33E36G01G02G03G04G05G06G07G08
+        G09G10G11G12G13G14G15G16G17G18G19G21G22G23G24G25G26
+        G27G28G29G30G31G32J01J02J03R01R02R03R04R05R07R08R09
+        R11R12R13R14R15R16R17R18R19R20R21R22R24  0  0  0  0
++        10 10  8  8  8  9 10 10 11  8  9  8  9  9  9  9  8
++         8  8  9  9  9  8  8  8  9 10 10  9 10  9  9  8  7
++         8  8  7  7  7  9  9  7  8  9  8  8  8  9  8  9  9
++         8  9  9  8  8  8  8  9  9  8  7  7  8  8  8  8  7
++         8  9  8  7  8  8  8  8  9  8  9  8  7  9  7  7  7
++         7  8  9  7  8  7 11 11  9  8  8  7  9 10  8  8 10
++         8  8  8  9  9  8  8  7  8  9  8 10  7  0  0  0  0
%c M  cc GPS ccc cccc cccc cccc cccc ccccc ccccc ccccc ccccc
%c cc cc ccc ccc cccc cccc cccc cccc ccccc ccccc ccccc ccccc
%f  0.0000000  0.000000000  0.00000000000  0.000000000000000
%f  0.0000000  0.000000000  0.00000000000  0.000000000000000
%i    0    0    0    0      0      0      0      0         0
%i    0    0    0    0      0      0      0      0         0
/* IAC                                ULTRA-RAPID PREDICTION
/* S/V CLOCKS ARE ALIGNED TO GNSS TIME                      
/* G:C1WC2W R:C1PC2P E:C1XC5X C:C2IC6I J:C1CC2S             
/* PCV:IGS14_2163 OL/AL:FES2004  NONE     YN ORB:CoN CLK:CoN
*  2021 07 17 10  0  0.00000000
PC06 -12471.385350  38372.689416  13579.980764    635.485534
PC08 -24162.874733  26858.698719  21517.642495   -905.662455
PC09  -4004.076883  42198.505755   -990.920812    367.584983
PC10   2533.537561  28998.722626 -30123.411970    -17.908218
PC11 -13544.952619  18461.881214 -15864.895395    462.636973
PC12 -15322.598125  -1050.976856 -23271.502106    809.092655
PC13 -11540.152499  27814.100481  29499.010182    339.728668
PC14 -15086.446731   7805.334867  22174.698859    799.316200
PC16 -10365.798731  39364.072034  11556.008806   -913.384078
PC19   5966.766800 -15130.175945 -22653.858782    912.194147
PC20  20408.715295   -820.336084 -18984.706961   -842.753650
PC21 -23381.502242 -14800.461578   3735.063019   -935.887863
PC22 -12391.303755 -21188.605311 -13305.111195   -948.387426
PC23   2999.377265  16180.425828 -22524.898640   -968.809662
PC24 -26487.738327   8162.739351   3152.419760   -943.392631
PC25 -15740.017342  17969.440198 -14411.229051   -884.579144
PC26 -21316.135860  -4413.862702  17439.206332    877.586982
PC27  13249.144497  11758.293084  21542.490430    565.752395
PC28   2716.255333  26056.598528   9599.149460    -49.601676
PC29   8439.267988 -25379.804604   7952.688234    420.659790
PC30  15739.769359  -9367.914911  21038.466266    474.353248
PC32  23456.811294  14647.015333  -3668.366787   -924.954320
PC33  -6033.486646  15117.015485  22670.130786   -944.018790
PC34 -15698.516846  10213.490829 -20707.971274   -626.173182
PC35  -3418.784630 -26089.221786  -9261.225969   -183.253216
PC36  16481.422863 -17536.780760  14156.474618   -733.639361
PC37  20602.365009   5541.042068 -17972.336320   -864.576656
PC38 -22121.410545  28647.928074  21504.419210    162.297257
PC39  -7162.870993  40176.779714  10918.731905     32.449542
PC40  -1581.282481  24835.486541 -33976.108636    181.353307
PC41  12096.331649  21174.426180  13615.005282   -961.366564
PC42 -20899.099325    172.859807  18544.193651   -920.465451
PC43  -8924.189621  25069.716986  -8447.556015   -825.232448
PC44 -13720.215311 -11482.914965 -21421.725884    293.751945
PC45  -3145.844467 -16022.876853  22642.511054    495.756169
PC46  26360.106513  -8965.677358  -2105.389760    175.101975
PE01  -4494.584269  16100.040467 -24422.137436  -1151.903026
PE02   4345.752208 -16127.865592  24441.423205    233.496266
PE03  -1315.632231 -26221.611257 -13684.634010   -453.587176
PE04  14760.918557  25315.474152  -4147.050517   -815.143811
PE05  13141.726714 -11727.561157 -23784.232435   -264.538949
PE07 -19779.022837  -9433.401945  19915.147457   -562.682541
PE08 -15049.970443 -25097.934876   4510.712033   5968.995251
PE09  19688.022397   9180.830082 -20091.113979   5597.583958
PE11  19195.674994  -1813.665494  22440.366777   5708.172039
PE12   6157.577311  17472.027914  23082.419446   5106.864533
PE13 -18965.237447   1456.236894 -22683.706764    419.127265
PE14   7711.110463  23302.003033   3936.051348  -1503.203792
PE15  -6196.333983 -17376.274123 -23149.191454    803.034942
PE18 -17136.731307 -21641.865777 -16014.856846  -1647.552032
PE19   -449.008110  25203.002582  15524.402781    328.974257
PE21 -23181.390117   8724.965618 -16204.904605   -676.717177
PE24  29108.853280   4758.510485  -2606.726867  -1012.478285
PE25  23326.351621  -8616.640054  16066.056144   -540.268485
PE26 -20440.623189  19853.703315  -8005.723573   1569.485615
PE27 -29271.194835  -4037.204166   1735.846389    -77.519491
PE30 -17052.482285 -14790.567665  19140.035999   2777.219418
PE31  18120.910954  14317.704839 -18501.477618   -483.351803
PE33 -10196.355696  25935.799475   9980.829550   -467.572919
PE36  20535.864708 -19383.916554   8861.582526   -235.594065
PG01  11782.087174 -21132.134988 -10818.653079    625.678264
PG02 -20734.382310  12090.516200 -10788.488931   -620.160715
PG03   5651.361442 -14011.000989 -21931.520190   -223.259587
PG04   2006.680336 -24399.753621 -10216.082416   -202.516245
PG05 -18080.897752   8300.265429  17524.294125    -48.174546
PG06 -18616.239151    533.397143 -18902.300331     41.365405
PG07  -2177.852123 -17625.645483  19962.082750    204.348130
PG08   8402.830602 -17166.919897  18296.135971    -29.111180
PG09  -7207.225235 -25548.309639    360.246872   -355.779664
PG10  22636.935610  11897.701670   7797.883192   -163.733276
PG11 -22366.024707   8915.772490 -11225.835801     17.579175
PG12  -7146.920843  13372.903754 -22050.558049    -69.805721
PG13 -13374.609787   9212.770373  20852.947778    158.817284
PG14 -22234.908371 -12681.010886   7169.898495     45.360626
PG15  -6825.511753  18415.962680  17349.214909   -134.940005
PG16  22783.526041  -1265.658717  13722.950443   -358.483342
PG17 -12595.103807 -18975.810923 -13232.501531    475.094289
PG18   3985.417034  15896.760002  20870.940595    340.361010
PG19 -14840.056064 -10497.361722 -19698.131431     27.419114
PG21  16608.424360 -20252.069815  -1412.973561    131.768401
PG22  13961.096414 -11773.032687 -19038.036034   -561.489698
PG23  13660.561800  15451.493461  16745.967615     83.445282
PG24 -13897.280669  21748.035281  -5551.000898    177.273730
PG25   5929.231906  16434.819662 -20341.118544    174.980387
PG26  26239.796061   3708.711292   3269.091352    111.590341
PG27  13613.883420  -6204.607954  21739.325434   -164.186971
PG28 -24133.406560 -10751.034763   1913.728116    536.377682
PG29   3983.447503  26211.278278   -952.821359   -381.533474
PG30 -13495.419425  -8780.672193  21216.030783   -451.747843
PG31  20188.114049  -1833.599181 -17484.285713   -129.109272
PG32  15128.439843  15706.893699 -15164.399465     13.601129
PJ01 -25766.945746  21758.942542  30340.427647   -417.551911
PJ02 -33507.430754  15414.980464 -15912.325782     -0.844455
PJ03 -20966.797568  32268.764238 -12425.912106     -0.215418
PR01  19067.168143  12448.036130 -11477.927862     82.422314
PR02  10231.179037  -4677.683529 -22855.042073    486.364394
PR03  -3761.722670 -17319.025502 -18278.817434     39.650802
PR04 -15453.790579 -19980.477715  -3507.420910     96.133120
PR05 -18452.336301 -11613.688111  13234.745726     75.477385
PR07   4292.828893  17688.564618  17929.452738    -42.008598
PR08  15453.270624  20002.387109   3564.878016    -59.996579
PR09 -22214.242755   9231.303311  -8574.737034      3.341400
PR11  10749.103866   8079.855532 -21657.585871     44.461744
PR12  23831.094034   -599.707921  -9066.305862    246.002337
PR13  22555.655609  -8875.721970   7927.358895    -57.837282
PR14   7577.049725 -12059.308343  21173.599566     66.569569
PR15 -11237.313734  -8134.917211  21431.896945    102.635327
PR16 -24083.212286   1653.631330   8029.886836    -18.037253
PR17   7190.543291 -24401.530292  -2169.428993    441.793798
PR18  -1833.959384 -18597.073332 -17330.943764     83.716005
PR19  -9487.296289  -4194.120568 -23311.156902   -151.846259
PR20 -13099.227675  15808.704941 -15163.614340    -52.623078
PR21  -6681.520669  24357.021052   3449.139050   -224.522158
PR22   2210.192610  17980.019912  17980.602743   -123.090773
PR24  13042.188079 -16479.289298  14479.265775     50.790981
EOF
